{
    "week": 294,
    "satellites": [
        {
            "Name": "COSMOS 2485 (747)",
            "Line1": "1 39155U 13019A   24329.70158786  .00000014  00000+0  00000+0 0  9992",
            "Line2": "2 39155  65.1176  92.7630 0023522 227.8608 131.9279  2.13104439 90148",
            "SatelliteNumber": "39155",
            "Classification": "U",
            "LaunchYear": "13",
            "LaunchNumber": "019",
            "PieceOfLaunch": "A",
            "EpochYear": "24",
            "EpochDay": 329.70158786,
            "FirstDerivativeMeanMotion": 1.4e-07,
            "SecondDerivativeMeanMotion": "00000+0",
            "BSTAR": "00000+0",
            "SetNumber": "999",
            "Inclination": 65.1176,
            "RAAN": 92.763,
            "Eccentricity": 0.0023522,
            "ArgumentOfPerigee": 227.8608,
            "MeanAnomaly": 131.9279,
            "MeanMotion": 2.13104439,
            "RevolutionNumber": "9014"
        },
        {
            "Name": "COSMOS 2492 (754)",
            "Line1": "1 39620U 14012A   24329.18760578 -.00000043  00000+0  00000+0 0  9996",
            "Line2": "2 39620  65.6050 333.2410 0014354 310.1960  49.7106  2.13103285 83099",
            "SatelliteNumber": "39620",
            "Classification": "U",
            "LaunchYear": "14",
            "LaunchNumber": "012",
            "PieceOfLaunch": "A",
            "EpochYear": "24",
            "EpochDay": 329.18760578,
            "FirstDerivativeMeanMotion": -4.3e-07,
            "SecondDerivativeMeanMotion": "00000+0",
            "BSTAR": "00000+0",
            "SetNumber": "999",
            "Inclination": 65.605,
            "RAAN": 333.241,
            "Eccentricity": 0.0014354,
            "ArgumentOfPerigee": 310.196,
            "MeanAnomaly": 49.7106,
            "MeanMotion": 2.13103285,
            "RevolutionNumber": "8309"
        },
        {
            "Name": "COSMOS 2500 (755)",
            "Line1": "1 40001U 14032A   24328.89561388 -.00000044  00000+0  00000+0 0  9999",
            "Line2": "2 40001  65.5419 333.0432 0008533 220.6370 139.3309  2.13106040 81301",
            "SatelliteNumber": "40001",
            "Classification": "U",
            "LaunchYear": "14",
            "LaunchNumber": "032",
            "PieceOfLaunch": "A",
            "EpochYear": "24",
            "EpochDay": 328.89561388,
            "FirstDerivativeMeanMotion": -4.4e-07,
            "SecondDerivativeMeanMotion": "00000+0",
            "BSTAR": "00000+0",
            "SetNumber": "999",
            "Inclination": 65.5419,
            "RAAN": 333.0432,
            "Eccentricity": 0.0008533,
            "ArgumentOfPerigee": 220.637,
            "MeanAnomaly": 139.3309,
            "MeanMotion": 2.1310604,
            "RevolutionNumber": "8130"
        },
        {
            "Name": "COSMOS 2501 (702K)",
            "Line1": "1 40315U 14075A   24329.15068961  .00000008  00000+0  00000+0 0  9992",
            "Line2": "2 40315  63.6162 210.1210 0019303 205.5117 154.4671  2.13101464 77704",
            "SatelliteNumber": "40315",
            "Classification": "U",
            "LaunchYear": "14",
            "LaunchNumber": "075",
            "PieceOfLaunch": "A",
            "EpochYear": "24",
            "EpochDay": 329.15068961,
            "FirstDerivativeMeanMotion": 8e-08,
            "SecondDerivativeMeanMotion": "00000+0",
            "BSTAR": "00000+0",
            "SetNumber": "999",
            "Inclination": 63.6162,
            "RAAN": 210.121,
            "Eccentricity": 0.0019303,
            "ArgumentOfPerigee": 205.5117,
            "MeanAnomaly": 154.4671,
            "MeanMotion": 2.13101464,
            "RevolutionNumber": "7770"
        },
        {
            "Name": "COSMOS 2514 (751)",
            "Line1": "1 41330U 16008A   24329.13357832 -.00000043  00000+0  00000+0 0  9994",
            "Line2": "2 41330  65.3353 332.5042 0012633 221.4591 138.4760  2.13102704 68470",
            "SatelliteNumber": "41330",
            "Classification": "U",
            "LaunchYear": "16",
            "LaunchNumber": "008",
            "PieceOfLaunch": "A",
            "EpochYear": "24",
            "EpochDay": 329.13357832,
            "FirstDerivativeMeanMotion": -4.3e-07,
            "SecondDerivativeMeanMotion": "00000+0",
            "BSTAR": "00000+0",
            "SetNumber": "999",
            "Inclination": 65.3353,
            "RAAN": 332.5042,
            "Eccentricity": 0.0012633,
            "ArgumentOfPerigee": 221.4591,
            "MeanAnomaly": 138.476,
            "MeanMotion": 2.13102704,
            "RevolutionNumber": "6847"
        },
        {
            "Name": "COSMOS 2522 (752)",
            "Line1": "1 42939U 17055A   24328.97335595  .00000004  00000+0  00000+0 0  9992",
            "Line2": "2 42939  64.0776 211.3096 0006568 232.8276 127.1855  2.13102025 55821",
            "SatelliteNumber": "42939",
            "Classification": "U",
            "LaunchYear": "17",
            "LaunchNumber": "055",
            "PieceOfLaunch": "A",
            "EpochYear": "24",
            "EpochDay": 328.97335595,
            "FirstDerivativeMeanMotion": 4e-08,
            "SecondDerivativeMeanMotion": "00000+0",
            "BSTAR": "00000+0",
            "SetNumber": "999",
            "Inclination": 64.0776,
            "RAAN": 211.3096,
            "Eccentricity": 0.0006568,
            "ArgumentOfPerigee": 232.8276,
            "MeanAnomaly": 127.1855,
            "MeanMotion": 2.13102025,
            "RevolutionNumber": "5582"
        },
        {
            "Name": "COSMOS 2527 (756)",
            "Line1": "1 43508U 18053A   24328.93276687  .00000020  00000+0  00000+0 0  9994",
            "Line2": "2 43508  65.2768  92.9744 0008376 219.3613 140.5672  2.13102292 50125",
            "SatelliteNumber": "43508",
            "Classification": "U",
            "LaunchYear": "18",
            "LaunchNumber": "053",
            "PieceOfLaunch": "A",
            "EpochYear": "24",
            "EpochDay": 328.93276687,
            "FirstDerivativeMeanMotion": 2e-07,
            "SecondDerivativeMeanMotion": "00000+0",
            "BSTAR": "00000+0",
            "SetNumber": "999",
            "Inclination": 65.2768,
            "RAAN": 92.9744,
            "Eccentricity": 0.0008376,
            "ArgumentOfPerigee": 219.3613,
            "MeanAnomaly": 140.5672,
            "MeanMotion": 2.13102292,
            "RevolutionNumber": "5012"
        },
        {
            "Name": "COSMOS 2529 (757)",
            "Line1": "1 43687U 18086A   24329.03146998  .00000003  00000+0  00000+0 0  9992",
            "Line2": "2 43687  64.2931 211.8634 0007796 260.7853  99.1993  2.13102063 47133",
            "SatelliteNumber": "43687",
            "Classification": "U",
            "LaunchYear": "18",
            "LaunchNumber": "086",
            "PieceOfLaunch": "A",
            "EpochYear": "24",
            "EpochDay": 329.03146998,
            "FirstDerivativeMeanMotion": 3e-08,
            "SecondDerivativeMeanMotion": "00000+0",
            "BSTAR": "00000+0",
            "SetNumber": "999",
            "Inclination": 64.2931,
            "RAAN": 211.8634,
            "Eccentricity": 0.0007796,
            "ArgumentOfPerigee": 260.7853,
            "MeanAnomaly": 99.1993,
            "MeanMotion": 2.13102063,
            "RevolutionNumber": "4713"
        },
        {
            "Name": "COSMOS 2534 (758)",
            "Line1": "1 44299U 19030A   24329.56680481  .00000009  00000+0  00000+0 0  9996",
            "Line2": "2 44299  64.3662 211.8137 0010010 286.7250 258.1828  2.13102169 42782",
            "SatelliteNumber": "44299",
            "Classification": "U",
            "LaunchYear": "19",
            "LaunchNumber": "030",
            "PieceOfLaunch": "A",
            "EpochYear": "24",
            "EpochDay": 329.56680481,
            "FirstDerivativeMeanMotion": 9e-08,
            "SecondDerivativeMeanMotion": "00000+0",
            "BSTAR": "00000+0",
            "SetNumber": "999",
            "Inclination": 64.3662,
            "RAAN": 211.8137,
            "Eccentricity": 0.001001,
            "ArgumentOfPerigee": 286.725,
            "MeanAnomaly": 258.1828,
            "MeanMotion": 2.13102169,
            "RevolutionNumber": "4278"
        },
        {
            "Name": "COSMOS 2544 (759)",
            "Line1": "1 44850U 19088A   24329.81547402  .00000013  00000+0  00000+0 0  9990",
            "Line2": "2 44850  65.2640  92.7788 0012742 247.9960 111.8569  2.13102060 38568",
            "SatelliteNumber": "44850",
            "Classification": "U",
            "LaunchYear": "19",
            "LaunchNumber": "088",
            "PieceOfLaunch": "A",
            "EpochYear": "24",
            "EpochDay": 329.81547402,
            "FirstDerivativeMeanMotion": 1.3e-07,
            "SecondDerivativeMeanMotion": "00000+0",
            "BSTAR": "00000+0",
            "SetNumber": "999",
            "Inclination": 65.264,
            "RAAN": 92.7788,
            "Eccentricity": 0.0012742,
            "ArgumentOfPerigee": 247.996,
            "MeanAnomaly": 111.8569,
            "MeanMotion": 2.1310206,
            "RevolutionNumber": "3856"
        }
    ]
}